[{"OBJECT_NAME":"HULIANWANG DIGUI-139","OBJECT_ID":"2026-007C","EPOCH":"2026-03-05T02:06:34.555680","MEAN_MOTION":13.41969009,"ECCENTRICITY":0.0008848,"INCLINATION":50.0424,"RA_OF_ASC_NODE":99.6398,"ARG_OF_PERICENTER":294.9043,"MEAN_ANOMALY":65.0915,"EPHEMERIS_TYPE":0,"CLASSIFICATION_TYPE":"U","NORAD_CAT_ID":67437,"ELEMENT_SET_NO":999,"REV_AT_EPOCH":693,"BSTAR":0.00020824533,"MEAN_MOTION_DOT":-1.1e-7,"MEAN_MOTION_DDOT":0},{"OBJECT_NAME":"SL-16 DEB","OBJECT_ID":"1985-097E","EPOCH":"2026-03-09T21:12:08.917056","MEAN_MOTION":13.77190841,"ECCENTRICITY":0.01898334,"INCLINATION":70.9964,"RA_OF_ASC_NODE":329.9946,"ARG_OF_PERICENTER":341.8072,"MEAN_ANOMALY":95.932,"EPHEMERIS_TYPE":0,"CLASSIFICATION_TYPE":"U","NORAD_CAT_ID":16391,"ELEMENT_SET_NO":999,"REV_AT_EPOCH":2814,"BSTAR":0.00010436352,"MEAN_MOTION_DOT":7.4e-7,"MEAN_MOTION_DDOT":0}]
